ONEWEB-0424             
1 50497U 21132AE  23253.07084755 -.00000016  00000+0 -73140-4 0  9992
2 50497  87.9222 176.5398 0002190  63.2032 296.9324 13.18687645 89667
ONEWEB-0426             
1 50498U 21132AF  23252.80529986  .00000085  00000+0  18221-3 0  9995
2 50498  87.9298 176.5882 0001418  78.2360 281.8931 13.18688061 89582
ONEWEB-0427             
1 50499U 21132AG  23252.53760438 -.00000292  00000+0 -77336-3 0  9999
2 50499  87.9224 176.6486 0001692  67.7310 292.4002 13.18686149 88283
ONEWEB-0429             
1 50500U 21132AH  23252.75260941  .00000054  00000+0  10338-3 0  9993
2 50500  87.9284 176.5830 0002059  76.0017 284.1344 13.18688388 89576
ONEWEB-0430             
1 50501U 21132AJ  23253.04558976  .00000189  00000+0  44680-3 0  9991
2 50501  87.9302 176.5177 0002118  70.9375 289.1986 13.18684012 89654
ONEWEB-0432             
1 50502U 21132AK  23253.07719639  .00000045  00000+0  82310-4 0  9994
2 50502  87.9221 176.5394 0002012  73.9725 286.1629 13.18687520 89626
ONEWEB-0440             
1 50503U 21132AL  23253.06453314 -.00000043  00000+0 -14148-3 0  9992
2 50503  87.9226 176.5550 0001891  99.1930 260.9416 13.18686671 89606
ONEWEB-0450             
1 50504U 21132AM  23252.75471751  .00000146  00000+0  33867-3 0  9994
2 50504  87.9272 176.6133 0002393  81.3156 278.8247 13.18687608 89596
